FENGYUN 1C DEB          
1 30212U 99025VV  26065.23481841  .00000524  00000+0  39198-3 0  9996
2 30212  99.4512 297.9854 0097984  11.2234 349.1082 13.97155968973914
FENGYUN 1C DEB          
1 30213U 99025VW  26065.21065966  .00002750  00000+0  14911-2 0  9999
2 30213  99.1133 148.0348 0067996  11.9529  42.8511 14.12112324976935
FENGYUN 1C DEB          
1 30214U 99025VX  26065.67097057  .00004664  00000+0  17591-2 0  9999
2 30214  98.7134 144.1457 0023280 155.1672   4.0015 14.31697707987674
FENGYUN 1C DEB          
1 30217U 99025WA  26065.21509929  .00000663  00000+0  27308-3 0  9991
2 30217  98.4425  50.7755 0138495 215.1299 144.0690 14.25002251992629
FENGYUN 1C DEB          
1 30218U 99025WB  26065.19918875  .00005310  00000+0  20270-2 0  9997
2 30218  98.9798 162.1509 0066472  14.0339  48.0407 14.29973352983014
FENGYUN 1C DEB          
1 30221U 99025WE  26065.49969395  .00001882  00000+0  47679-3 0  9990
2 30221  98.9479 162.8139 0145148 150.8044 210.1359 14.46039607  6121
FENGYUN 1C DEB          
1 30222U 99025WF  26065.08100428  .00000033  00000+0  47512-4 0  9994
2 30222  98.8310 101.1799 0037848 161.3345 224.9227 14.04107937980080
FENGYUN 1C DEB          
1 30224U 99025WH  26065.10770050  .00000392  00000+0  33737-3 0  9994
2 30224  99.4716 110.3987 0112655 119.9551 297.4612 13.89950629968993
FENGYUN 1C DEB          
1 30225U 99025WJ  26065.58455281  .00000338  00000+0  18654-3 0  9994
2 30225  98.6516  94.8989 0099119 205.1210 309.9396 14.15252324987222
FENGYUN 1C DEB          
1 30229U 99025WN  26064.66891822  .00010359  00000+0  20388-2 0  9991
2 30229  99.0502 137.1149 0038156 147.2982   5.3676 14.62320211  1274
FENGYUN 1C DEB          
1 30231U 99025WQ  26065.10630349  .00001264  00000+0  66171-3 0  9995
2 30231  98.7919 113.2998 0128745 151.9775 236.4015 14.11879559981963
FENGYUN 1C DEB          
1 30232U 99025WR  26065.62758324  .00004700  00000+0  78498-3 0  9990
2 30232  98.6914 275.4445 0134745  89.5881 308.9950 14.64551798  9769
FENGYUN 1C DEB          
1 30234U 99025WT  26065.49344742  .00000687  00000+0  35534-3 0  9996
2 30234  98.6332  78.8244 0065829 193.2719 321.8465 14.17002272986424
FENGYUN 1C DEB          
1 30235U 99025WU  26065.84448376  .00001072  00000+0  57809-3 0  9992
2 30235  98.7449  86.5578 0153809   1.4391 177.8600 14.08914349980772
FENGYUN 1C DEB          
1 30237U 99025WW  26065.31108830  .00008261  00000+0  25062-2 0  9996
2 30237  98.8224 175.8156 0013801  71.2582 357.5688 14.42402106989025
FENGYUN 1C DEB          
1 30239U 99025WY  26065.62837020  .00025058  00000+0  47799-1 0  9995
2 30239  99.4786 191.3706 1448876 242.5881 102.0577 11.40915448554909
