[{"OBJECT_NAME":"FENGYUN 1C DEB","OBJECT_ID":"1999-025VV","EPOCH":"2026-03-06T05:38:08.310624","MEAN_MOTION":13.97155968,"ECCENTRICITY":0.00979845,"INCLINATION":99.4512,"RA_OF_ASC_NODE":297.9854,"ARG_OF_PERICENTER":11.2234,"MEAN_ANOMALY":349.1082,"EPHEMERIS_TYPE":0,"CLASSIFICATION_TYPE":"U","NORAD_CAT_ID":30212,"ELEMENT_SET_NO":999,"REV_AT_EPOCH":97391,"BSTAR":0.0003919764,"MEAN_MOTION_DOT":5.24e-6,"MEAN_MOTION_DDOT":0},{"OBJECT_NAME":"FENGYUN 1C DEB","OBJECT_ID":"1999-025VW","EPOCH":"2026-03-06T05:03:20.994624","MEAN_MOTION":14.12112324,"ECCENTRICITY":0.00679961,"INCLINATION":99.1133,"RA_OF_ASC_NODE":148.0348,"ARG_OF_PERICENTER":11.9529,"MEAN_ANOMALY":42.8511,"EPHEMERIS_TYPE":0,"CLASSIFICATION_TYPE":"U","NORAD_CAT_ID":30213,"ELEMENT_SET_NO":999,"REV_AT_EPOCH":97693,"BSTAR":0.0014910736,"MEAN_MOTION_DOT":2.75e-5,"MEAN_MOTION_DDOT":0},{"OBJECT_NAME":"FENGYUN 1C DEB","OBJECT_ID":"1999-025VX","EPOCH":"2026-03-06T16:06:11.857248","MEAN_MOTION":14.31697707,"ECCENTRICITY":0.00232804,"INCLINATION":98.7134,"RA_OF_ASC_NODE":144.1457,"ARG_OF_PERICENTER":155.1672,"MEAN_ANOMALY":4.0015,"EPHEMERIS_TYPE":0,"CLASSIFICATION_TYPE":"U","NORAD_CAT_ID":30214,"ELEMENT_SET_NO":999,"REV_AT_EPOCH":98767,"BSTAR":0.0017591452,"MEAN_MOTION_DOT":4.664e-5,"MEAN_MOTION_DDOT":0},{"OBJECT_NAME":"FENGYUN 1C DEB","OBJECT_ID":"1999-025WA","EPOCH":"2026-03-06T05:09:44.578656","MEAN_MOTION":14.25002251,"ECCENTRICITY":0.01384956,"INCLINATION":98.4425,"RA_OF_ASC_NODE":50.7755,"ARG_OF_PERICENTER":215.1299,"MEAN_ANOMALY":144.069,"EPHEMERIS_TYPE":0,"CLASSIFICATION_TYPE":"U","NORAD_CAT_ID":30217,"ELEMENT_SET_NO":999,"REV_AT_EPOCH":99262,"BSTAR":0.00027307533,"MEAN_MOTION_DOT":6.63e-6,"MEAN_MOTION_DDOT":0},{"OBJECT_NAME":"FENGYUN 1C DEB","OBJECT_ID":"1999-025WB","EPOCH":"2026-03-06T04:46:49.908000","MEAN_MOTION":14.29973352,"ECCENTRICITY":0.00664722,"INCLINATION":98.9798,"RA_OF_ASC_NODE":162.1509,"ARG_OF_PERICENTER":14.0339,"MEAN_ANOMALY":48.0407,"EPHEMERIS_TYPE":0,"CLASSIFICATION_TYPE":"U","NORAD_CAT_ID":30218,"ELEMENT_SET_NO":999,"REV_AT_EPOCH":98301,"BSTAR":0.0020269797,"MEAN_MOTION_DOT":5.31e-5,"MEAN_MOTION_DDOT":0},{"OBJECT_NAME":"FENGYUN 1C DEB","OBJECT_ID":"1999-025WE","EPOCH":"2026-03-06T11:59:33.557280","MEAN_MOTION":14.46039607,"ECCENTRICITY":0.01451481,"INCLINATION":98.9479,"RA_OF_ASC_NODE":162.8139,"ARG_OF_PERICENTER":150.8044,"MEAN_ANOMALY":210.1359,"EPHEMERIS_TYPE":0,"CLASSIFICATION_TYPE":"U","NORAD_CAT_ID":30221,"ELEMENT_SET_NO":999,"REV_AT_EPOCH":612,"BSTAR":0.00047678772,"MEAN_MOTION_DOT":1.882e-5,"MEAN_MOTION_DDOT":0},{"OBJECT_NAME":"FENGYUN 1C DEB","OBJECT_ID":"1999-025WF","EPOCH":"2026-03-06T01:56:38.769792","MEAN_MOTION":14.04107937,"ECCENTRICITY":0.00378486,"INCLINATION":98.831,"RA_OF_ASC_NODE":101.1799,"ARG_OF_PERICENTER":161.3345,"MEAN_ANOMALY":224.9227,"EPHEMERIS_TYPE":0,"CLASSIFICATION_TYPE":"U","NORAD_CAT_ID":30222,"ELEMENT_SET_NO":999,"REV_AT_EPOCH":98008,"BSTAR":4.7512474e-5,"MEAN_MOTION_DOT":3.3e-7,"MEAN_MOTION_DDOT":0},{"OBJECT_NAME":"FENGYUN 1C DEB","OBJECT_ID":"1999-025WH","EPOCH":"2026-03-06T02:35:05.323200","MEAN_MOTION":13.89950629,"ECCENTRICITY":0.01126551,"INCLINATION":99.4716,"RA_OF_ASC_NODE":110.3987,"ARG_OF_PERICENTER":119.9551,"MEAN_ANOMALY":297.4612,"EPHEMERIS_TYPE":0,"CLASSIFICATION_TYPE":"U","NORAD_CAT_ID":30224,"ELEMENT_SET_NO":999,"REV_AT_EPOCH":96899,"BSTAR":0.0003373668,"MEAN_MOTION_DOT":3.92e-6,"MEAN_MOTION_DDOT":0},{"OBJECT_NAME":"FENGYUN 1C DEB","OBJECT_ID":"1999-025WJ","EPOCH":"2026-03-06T14:01:45.362784","MEAN_MOTION":14.15252324,"ECCENTRICITY":0.00991199,"INCLINATION":98.6516,"RA_OF_ASC_NODE":94.8989,"ARG_OF_PERICENTER":205.121,"MEAN_ANOMALY":309.9396,"EPHEMERIS_TYPE":0,"CLASSIFICATION_TYPE":"U","NORAD_CAT_ID":30225,"ELEMENT_SET_NO":999,"REV_AT_EPOCH":98722,"BSTAR":0.00018653637,"MEAN_MOTION_DOT":3.38e-6,"MEAN_MOTION_DDOT":0},{"OBJECT_NAME":"FENGYUN 1C DEB","OBJECT_ID":"1999-025WN","EPOCH":"2026-03-05T16:03:14.534208","MEAN_MOTION":14.62320211,"ECCENTRICITY":0.0038156,"INCLINATION":99.0502,"RA_OF_ASC_NODE":137.1149,"ARG_OF_PERICENTER":147.2982,"MEAN_ANOMALY":5.3676,"EPHEMERIS_TYPE":0,"CLASSIFICATION_TYPE":"U","NORAD_CAT_ID":30229,"ELEMENT_SET_NO":999,"REV_AT_EPOCH":127,"BSTAR":0.0020388,"MEAN_MOTION_DOT":0.00010359,"MEAN_MOTION_DDOT":0},{"OBJECT_NAME":"FENGYUN 1C DEB","OBJECT_ID":"1999-025WQ","EPOCH":"2026-03-06T02:33:04.621536","MEAN_MOTION":14.11879559,"ECCENTRICITY":0.01287451,"INCLINATION":98.7919,"RA_OF_ASC_NODE":113.2998,"ARG_OF_PERICENTER":151.9775,"MEAN_ANOMALY":236.4015,"EPHEMERIS_TYPE":0,"CLASSIFICATION_TYPE":"U","NORAD_CAT_ID":30231,"ELEMENT_SET_NO":999,"REV_AT_EPOCH":98196,"BSTAR":0.00066170521,"MEAN_MOTION_DOT":1.264e-5,"MEAN_MOTION_DDOT":0},{"OBJECT_NAME":"FENGYUN 1C DEB","OBJECT_ID":"1999-025WR","EPOCH":"2026-03-06T15:03:43.191936","MEAN_MOTION":14.64551798,"ECCENTRICITY":0.01347451,"INCLINATION":98.6914,"RA_OF_ASC_NODE":275.4445,"ARG_OF_PERICENTER":89.5881,"MEAN_ANOMALY":308.995,"EPHEMERIS_TYPE":0,"CLASSIFICATION_TYPE":"U","NORAD_CAT_ID":30232,"ELEMENT_SET_NO":999,"REV_AT_EPOCH":976,"BSTAR":0.0007849782,"MEAN_MOTION_DOT":4.7e-5,"MEAN_MOTION_DDOT":0},{"OBJECT_NAME":"FENGYUN 1C DEB","OBJECT_ID":"1999-025WT","EPOCH":"2026-03-06T11:50:33.857088","MEAN_MOTION":14.17002272,"ECCENTRICITY":0.00658299,"INCLINATION":98.6332,"RA_OF_ASC_NODE":78.8244,"ARG_OF_PERICENTER":193.2719,"MEAN_ANOMALY":321.8465,"EPHEMERIS_TYPE":0,"CLASSIFICATION_TYPE":"U","NORAD_CAT_ID":30234,"ELEMENT_SET_NO":999,"REV_AT_EPOCH":98642,"BSTAR":0.00035533973,"MEAN_MOTION_DOT":6.87e-6,"MEAN_MOTION_DDOT":0},{"OBJECT_NAME":"FENGYUN 1C DEB","OBJECT_ID":"1999-025WU","EPOCH":"2026-03-06T20:16:03.396864","MEAN_MOTION":14.08914349,"ECCENTRICITY":0.0153809,"INCLINATION":98.7449,"RA_OF_ASC_NODE":86.5578,"ARG_OF_PERICENTER":1.4391,"MEAN_ANOMALY":177.86,"EPHEMERIS_TYPE":0,"CLASSIFICATION_TYPE":"U","NORAD_CAT_ID":30235,"ELEMENT_SET_NO":999,"REV_AT_EPOCH":98077,"BSTAR":0.00057809,"MEAN_MOTION_DOT":1.072e-5,"MEAN_MOTION_DDOT":0},{"OBJECT_NAME":"FENGYUN 1C DEB","OBJECT_ID":"1999-025WW","EPOCH":"2026-03-06T07:27:58.029120","MEAN_MOTION":14.42402106,"ECCENTRICITY":0.00138016,"INCLINATION":98.8224,"RA_OF_ASC_NODE":175.8156,"ARG_OF_PERICENTER":71.2582,"MEAN_ANOMALY":357.5688,"EPHEMERIS_TYPE":0,"CLASSIFICATION_TYPE":"U","NORAD_CAT_ID":30237,"ELEMENT_SET_NO":999,"REV_AT_EPOCH":98902,"BSTAR":0.002506168,"MEAN_MOTION_DOT":8.261e-5,"MEAN_MOTION_DDOT":0},{"OBJECT_NAME":"FENGYUN 1C DEB","OBJECT_ID":"1999-025WY","EPOCH":"2026-03-06T15:04:51.185280","MEAN_MOTION":11.40915448,"ECCENTRICITY":0.14488768,"INCLINATION":99.4786,"RA_OF_ASC_NODE":191.3706,"ARG_OF_PERICENTER":242.5881,"MEAN_ANOMALY":102.0577,"EPHEMERIS_TYPE":0,"CLASSIFICATION_TYPE":"U","NORAD_CAT_ID":30239,"ELEMENT_SET_NO":999,"REV_AT_EPOCH":55490,"BSTAR":0.047798584,"MEAN_MOTION_DOT":0.00025058,"MEAN_MOTION_DDOT":0}]
